{"type":"FeatureCollection","features":[{"type":"Feature","properties":{"kreis":1,"name":"Kreis 1"},"geometry":{"type":"Polygon","coordinates":[[[8.52922,47.36921],[8.53016,47.36987],[8.53099,47.37072],[8.53109,47.37085],[8.53104,47.37096],[8.53289,47.37383],[8.53344,47.37443],[8.5335,47.37441],[8.53473,47.37563],[8.53669,47.377],[8.53756,47.37779],[8.53873,47.37964],[8.53895,47.38025],[8.53899,47.38137],[8.53885,47.38193],[8.53848,47.38266],[8.53886,47.38297],[8.53926,47.38274],[8.54001,47.38195],[8.54167,47.37965],[8.54297,47.37993],[8.54344,47.37875],[8.54365,47.37888],[8.54418,47.37891],[8.54501,47.37924],[8.54533,47.37903],[8.54666,47.37707],[8.5485,47.37744],[8.54914,47.37599],[8.54946,47.37556],[8.54939,47.37547],[8.54945,47.37525],[8.55078,47.37217],[8.55073,47.37195],[8.54993,47.3711],[8.55001,47.37107],[8.54894,47.37],[8.55085,47.36846],[8.55078,47.36847],[8.54979,47.36774],[8.55047,47.36718],[8.54953,47.36658],[8.54924,47.36669],[8.54884,47.3663],[8.54887,47.36603],[8.54737,47.36458],[8.54619,47.36421],[8.54586,47.36422],[8.54214,47.36321],[8.53995,47.36557],[8.53735,47.36856],[8.53716,47.36868],[8.53677,47.36877],[8.53527,47.36891],[8.53512,47.36901],[8.53479,47.36952],[8.53379,47.36936],[8.53365,47.36949],[8.53064,47.36841],[8.53038,47.36826],[8.52922,47.36921]]]}},{"type":"Feature","properties":{"kreis":2,"name":"Kreis 2"},"geometry":{"type":"Polygon","coordinates":[[[8.50065,47.3311],[8.50075,47.33138],[8.50113,47.33183],[8.50076,47.33202],[8.50079,47.33224],[8.50107,47.3326],[8.50192,47.33303],[8.50221,47.33364],[8.50192,47.33389],[8.50178,47.33411],[8.50153,47.33504],[8.50171,47.33589],[8.50184,47.33612],[8.50202,47.33636],[8.50251,47.33663],[8.5024,47.33718],[8.50222,47.33757],[8.50225,47.33792],[8.50249,47.33801],[8.50267,47.33823],[8.50306,47.33931],[8.50307,47.33975],[8.50331,47.33975],[8.50356,47.33997],[8.5039,47.34043],[8.50396,47.34073],[8.5045,47.34132],[8.50574,47.3422],[8.50651,47.34252],[8.50698,47.3429],[8.50808,47.3433],[8.50943,47.344],[8.51011,47.34403],[8.51087,47.3439],[8.51196,47.34391],[8.51283,47.34386],[8.5132,47.34378],[8.51359,47.34379],[8.5144,47.34359],[8.51473,47.34335],[8.51552,47.34352],[8.51666,47.34349],[8.51672,47.34359],[8.51805,47.34437],[8.51836,47.34444],[8.51629,47.34833],[8.51617,47.34918],[8.51646,47.34979],[8.51695,47.35034],[8.51766,47.35076],[8.52278,47.35221],[8.52418,47.35284],[8.52464,47.3533],[8.52479,47.35382],[8.52449,47.35556],[8.5244,47.35697],[8.52329,47.36035],[8.52291,47.36192],[8.5228,47.363],[8.52289,47.36389],[8.52308,47.36454],[8.52341,47.36517],[8.52404,47.36594],[8.52508,47.3668],[8.52901,47.36938],[8.53038,47.36826],[8.53064,47.36841],[8.53365,47.36949],[8.53379,47.36936],[8.53479,47.36952],[8.53512,47.36901],[8.53527,47.36891],[8.53677,47.36877],[8.53716,47.36868],[8.53735,47.36856],[8.53995,47.36557],[8.54214,47.36321],[8.54205,47.35268],[8.55388,47.34086],[8.54208,47.33502],[8.5414,47.33451],[8.54074,47.33376],[8.54031,47.33396],[8.5402,47.33372],[8.54043,47.33358],[8.53957,47.33272],[8.53931,47.33269],[8.53871,47.33201],[8.53711,47.33123],[8.53643,47.33076],[8.53643,47.33044],[8.53623,47.3303],[8.53623,47.33018],[8.53547,47.33006],[8.53346,47.32992],[8.53177,47.32948],[8.53163,47.32923],[8.53146,47.32846],[8.53103,47.32789],[8.52975,47.32776],[8.5297,47.32686],[8.52943,47.32687],[8.529,47.32698],[8.52814,47.32685],[8.52803,47.32635],[8.52756,47.32639],[8.52763,47.32616],[8.5258,47.32619],[8.52564,47.32574],[8.52427,47.32608],[8.52417,47.32554],[8.52421,47.32486],[8.52373,47.32416],[8.52305,47.32433],[8.52195,47.32435],[8.52195,47.32394],[8.52086,47.32391],[8.51993,47.32401],[8.51933,47.32401],[8.51862,47.32382],[8.5181,47.32353],[8.51773,47.32321],[8.51643,47.32308],[8.51561,47.32315],[8.51473,47.32272],[8.51342,47.3229],[8.51296,47.32289],[8.51245,47.32273],[8.51163,47.32221],[8.51088,47.32209],[8.50958,47.32202],[8.50952,47.32165],[8.50881,47.32175],[8.50822,47.32198],[8.50789,47.32203],[8.50736,47.32172],[8.50572,47.32145],[8.5053,47.32143],[8.50477,47.32121],[8.50431,47.32074],[8.50318,47.32022],[8.50313,47.32032],[8.50242,47.32053],[8.50228,47.32081],[8.50194,47.32092],[8.50153,47.32129],[8.50103,47.32198],[8.50096,47.32258],[8.50061,47.32278],[8.50079,47.3237],[8.50068,47.32451],[8.50085,47.32482],[8.50099,47.32595],[8.50151,47.3265],[8.5016,47.32732],[8.50189,47.32764],[8.50133,47.32883],[8.50141,47.32903],[8.50084,47.3295],[8.5007,47.32979],[8.50088,47.33053],[8.50065,47.3311]]]}},{"type":"Feature","properties":{"kreis":3,"name":"Kreis 3"},"geometry":{"type":"Polygon","coordinates":[[[8.48343,47.35802],[8.48364,47.35833],[8.4877,47.36214],[8.48833,47.36224],[8.4896,47.36262],[8.49135,47.36335],[8.49324,47.36395],[8.49414,47.36412],[8.49427,47.36479],[8.49417,47.36496],[8.4939,47.36501],[8.49382,47.36521],[8.49393,47.36515],[8.49405,47.36519],[8.49417,47.36568],[8.49452,47.36645],[8.49521,47.36756],[8.49515,47.36762],[8.49492,47.36762],[8.4944,47.3675],[8.49427,47.36763],[8.4946,47.36785],[8.49467,47.36816],[8.4949,47.36817],[8.49562,47.3687],[8.49606,47.36891],[8.49856,47.36986],[8.4996,47.37047],[8.5004,47.37113],[8.50269,47.3736],[8.50268,47.37374],[8.50233,47.374],[8.50215,47.37436],[8.50187,47.37463],[8.49896,47.37721],[8.49856,47.37738],[8.49918,47.37804],[8.49992,47.37866],[8.50322,47.38101],[8.50427,47.38085],[8.50927,47.37862],[8.50967,47.37836],[8.50966,47.37829],[8.50984,47.37811],[8.51013,47.37794],[8.51071,47.37799],[8.51281,47.37714],[8.51536,47.37593],[8.5163,47.37561],[8.5165,47.37545],[8.51684,47.37537],[8.51697,47.37545],[8.51931,47.37489],[8.51967,47.37438],[8.52018,47.37391],[8.52362,47.37161],[8.52597,47.36964],[8.52625,47.36979],[8.52657,47.36952],[8.52797,47.36929],[8.52796,47.36902],[8.5282,47.36885],[8.52508,47.3668],[8.52404,47.36594],[8.52329,47.36496],[8.52289,47.36389],[8.5228,47.363],[8.52291,47.36192],[8.52329,47.36035],[8.5244,47.35697],[8.52449,47.35556],[8.52479,47.35382],[8.52464,47.3533],[8.52418,47.35284],[8.52278,47.35221],[8.52107,47.35169],[8.51822,47.35096],[8.5174,47.35064],[8.51675,47.35017],[8.51624,47.34939],[8.51615,47.34897],[8.51629,47.34833],[8.51836,47.34444],[8.51805,47.34437],[8.51672,47.34359],[8.51666,47.34349],[8.51552,47.34352],[8.51473,47.34335],[8.5144,47.34359],[8.51359,47.34379],[8.5132,47.34378],[8.51283,47.34386],[8.51196,47.34391],[8.51087,47.3439],[8.51011,47.34403],[8.50943,47.344],[8.50808,47.3433],[8.50698,47.3429],[8.50651,47.34252],[8.50574,47.3422],[8.5045,47.34132],[8.50396,47.34073],[8.5039,47.34043],[8.50356,47.33997],[8.50331,47.33975],[8.50307,47.33975],[8.50306,47.33931],[8.50267,47.33823],[8.50249,47.33801],[8.50225,47.33792],[8.50222,47.33757],[8.5024,47.33718],[8.50251,47.33663],[8.50202,47.33636],[8.50197,47.3368],[8.50173,47.33717],[8.50026,47.3383],[8.49878,47.33968],[8.49809,47.34169],[8.4977,47.34206],[8.49714,47.34233],[8.49703,47.34247],[8.4971,47.34326],[8.498,47.34365],[8.49811,47.34387],[8.49818,47.34453],[8.49774,47.3452],[8.49725,47.34553],[8.49637,47.34648],[8.49561,47.34682],[8.4951,47.34692],[8.49491,47.34739],[8.49469,47.3476],[8.49418,47.34783],[8.49354,47.34801],[8.49356,47.34808],[8.49286,47.34828],[8.49207,47.3495],[8.49146,47.34964],[8.49129,47.34983],[8.49118,47.35013],[8.491,47.35025],[8.4909,47.35067],[8.49001,47.35056],[8.48874,47.35165],[8.48856,47.35177],[8.48822,47.35186],[8.48814,47.352],[8.48741,47.35209],[8.48693,47.35203],[8.48681,47.3522],[8.48699,47.35268],[8.48729,47.35311],[8.48712,47.3534],[8.48685,47.35366],[8.4865,47.35377],[8.48574,47.35422],[8.48544,47.35448],[8.48502,47.35468],[8.48464,47.35536],[8.48465,47.3567],[8.48454,47.35672],[8.48448,47.35702],[8.48412,47.35756],[8.48343,47.35802]]]}},{"type":"Feature","properties":{"kreis":4,"name":"Kreis 4"},"geometry":{"type":"Polygon","coordinates":[[[8.49762,47.38834],[8.49891,47.39036],[8.50073,47.39137],[8.5031,47.39068],[8.50361,47.39042],[8.50484,47.38958],[8.50557,47.38929],[8.50632,47.3891],[8.50647,47.38922],[8.50674,47.38908],[8.50777,47.38876],[8.50862,47.38866],[8.51005,47.38829],[8.51068,47.38846],[8.51059,47.38877],[8.51075,47.38872],[8.51078,47.38859],[8.51144,47.38803],[8.51199,47.3871],[8.51237,47.38685],[8.5133,47.38645],[8.52533,47.38323],[8.52569,47.383],[8.52681,47.38274],[8.52836,47.38224],[8.52888,47.38175],[8.52874,47.38152],[8.53115,47.38116],[8.5312,47.38123],[8.53605,47.37991],[8.53757,47.37938],[8.53769,47.37958],[8.53842,47.37922],[8.5375,47.37772],[8.53669,47.377],[8.53473,47.37563],[8.53297,47.37393],[8.53104,47.37096],[8.53109,47.37085],[8.53055,47.37022],[8.52922,47.36921],[8.52901,47.36938],[8.5282,47.36885],[8.52796,47.36902],[8.52797,47.36929],[8.52657,47.36952],[8.52625,47.36979],[8.52597,47.36964],[8.52362,47.37161],[8.52018,47.37391],[8.51967,47.37438],[8.51931,47.37489],[8.51697,47.37545],[8.51684,47.37537],[8.5165,47.37545],[8.5163,47.37561],[8.51536,47.37593],[8.51281,47.37714],[8.51071,47.37799],[8.51013,47.37794],[8.50984,47.37811],[8.50966,47.37829],[8.50967,47.37836],[8.50927,47.37862],[8.50427,47.38085],[8.5032,47.381],[8.50307,47.38136],[8.5034,47.38156],[8.50389,47.38162],[8.50583,47.38316],[8.50577,47.38327],[8.50298,47.38447],[8.50316,47.38461],[8.50338,47.38452],[8.50334,47.38468],[8.505,47.38596],[8.50511,47.38597],[8.50025,47.38741],[8.50033,47.38754],[8.49762,47.38834]]]}},{"type":"Feature","properties":{"kreis":5,"name":"Kreis 5"},"geometry":{"type":"Polygon","coordinates":[[[8.49837,47.39205],[8.50198,47.39207],[8.50293,47.39267],[8.50213,47.39325],[8.50203,47.39341],[8.5021,47.39355],[8.50232,47.39365],[8.50293,47.39374],[8.50468,47.39384],[8.50497,47.39403],[8.5052,47.39404],[8.50514,47.39409],[8.50543,47.39495],[8.51197,47.3946],[8.51318,47.39445],[8.51439,47.39412],[8.51701,47.3931],[8.52027,47.39222],[8.5219,47.39192],[8.52424,47.39135],[8.52557,47.39084],[8.52743,47.38992],[8.52834,47.38939],[8.53153,47.38722],[8.53288,47.38639],[8.53886,47.38297],[8.53848,47.38266],[8.53885,47.38193],[8.53902,47.38115],[8.539,47.38047],[8.53873,47.37964],[8.53842,47.37922],[8.53769,47.37958],[8.53757,47.37938],[8.53605,47.37991],[8.5312,47.38123],[8.53115,47.38116],[8.52874,47.38152],[8.52888,47.38175],[8.52836,47.38224],[8.52681,47.38274],[8.52569,47.383],[8.52533,47.38323],[8.5133,47.38645],[8.51237,47.38685],[8.51199,47.3871],[8.51144,47.38803],[8.51078,47.38859],[8.51075,47.38872],[8.51059,47.38877],[8.51068,47.38846],[8.51005,47.38829],[8.50862,47.38866],[8.50777,47.38876],[8.50674,47.38908],[8.50647,47.38922],[8.50632,47.3891],[8.50557,47.38929],[8.50484,47.38958],[8.50361,47.39042],[8.5031,47.39068],[8.49837,47.39205]]]}},{"type":"Feature","properties":{"kreis":6,"name":"Kreis 6"},"geometry":{"type":"Polygon","coordinates":[[[8.52602,47.40844],[8.52734,47.40907],[8.52813,47.40971],[8.52845,47.40945],[8.52861,47.40953],[8.52899,47.40919],[8.52913,47.40944],[8.53059,47.40886],[8.53084,47.40886],[8.53092,47.40861],[8.53132,47.40811],[8.53157,47.40846],[8.53574,47.40699],[8.53594,47.40693],[8.53609,47.40697],[8.53601,47.40683],[8.53618,47.40675],[8.53626,47.40678],[8.53776,47.40642],[8.53791,47.40668],[8.53811,47.40657],[8.53815,47.4064],[8.54101,47.40431],[8.54018,47.40395],[8.54047,47.40364],[8.54056,47.40368],[8.54084,47.40348],[8.54107,47.40364],[8.54145,47.40337],[8.5412,47.40322],[8.54197,47.40267],[8.544,47.40154],[8.54406,47.40143],[8.54442,47.40125],[8.5443,47.40117],[8.54451,47.40102],[8.54464,47.40111],[8.54479,47.401],[8.54383,47.40032],[8.54406,47.40016],[8.54414,47.39996],[8.54651,47.40036],[8.54658,47.39999],[8.54696,47.39995],[8.54723,47.39984],[8.54744,47.39964],[8.54746,47.39938],[8.54797,47.39915],[8.55107,47.40115],[8.55255,47.4019],[8.55333,47.40108],[8.5545,47.40055],[8.55453,47.40048],[8.55543,47.40137],[8.55562,47.40129],[8.55523,47.40054],[8.55428,47.40003],[8.55353,47.39929],[8.5543,47.39855],[8.55461,47.39846],[8.55716,47.39873],[8.55742,47.39905],[8.55758,47.39888],[8.55793,47.39878],[8.55791,47.39873],[8.55826,47.39878],[8.55885,47.39875],[8.5594,47.39861],[8.56076,47.39765],[8.56147,47.39695],[8.56275,47.39609],[8.56308,47.39574],[8.56547,47.39459],[8.56828,47.39236],[8.5688,47.39174],[8.56897,47.3917],[8.56742,47.39102],[8.5668,47.3903],[8.56554,47.38969],[8.56539,47.38969],[8.56411,47.38874],[8.56372,47.38806],[8.56299,47.3874],[8.56298,47.38749],[8.56192,47.38808],[8.56093,47.38882],[8.55851,47.38703],[8.55762,47.38711],[8.5566,47.38673],[8.55623,47.38633],[8.55629,47.3863],[8.55618,47.38623],[8.55629,47.38616],[8.55595,47.38584],[8.5557,47.38515],[8.55392,47.38392],[8.55385,47.38385],[8.55389,47.38356],[8.55372,47.38352],[8.55331,47.38323],[8.55297,47.38316],[8.55152,47.38224],[8.55072,47.38186],[8.55055,47.38187],[8.55058,47.38165],[8.55142,47.38106],[8.55222,47.38028],[8.55311,47.37967],[8.5514,47.37831],[8.55129,47.37814],[8.55124,47.37819],[8.55109,47.37815],[8.55103,47.3779],[8.55043,47.37758],[8.54879,47.37704],[8.54867,47.37708],[8.5485,47.37744],[8.54666,47.37707],[8.54533,47.37903],[8.54501,47.37924],[8.54418,47.37891],[8.54365,47.37888],[8.54344,47.37875],[8.54297,47.37993],[8.54167,47.37965],[8.54001,47.38195],[8.53926,47.38274],[8.53288,47.38639],[8.53337,47.38685],[8.53348,47.38681],[8.53401,47.38687],[8.53398,47.38699],[8.53416,47.38706],[8.53453,47.38687],[8.5357,47.38767],[8.53599,47.38796],[8.536,47.38834],[8.53625,47.38847],[8.53614,47.39119],[8.53604,47.39127],[8.53622,47.39143],[8.53546,47.39199],[8.53505,47.39235],[8.53464,47.39287],[8.53437,47.393],[8.53394,47.39341],[8.53316,47.39455],[8.53229,47.39555],[8.53227,47.39574],[8.53267,47.39746],[8.53275,47.39752],[8.53231,47.3974],[8.53236,47.39793],[8.53219,47.39811],[8.53231,47.39818],[8.53231,47.39833],[8.53176,47.39924],[8.53194,47.40009],[8.53209,47.40009],[8.53203,47.40055],[8.5316,47.40149],[8.53064,47.40256],[8.53064,47.4036],[8.52991,47.40468],[8.52956,47.40488],[8.5286,47.40523],[8.52835,47.40553],[8.52821,47.40548],[8.52786,47.40577],[8.52681,47.40719],[8.52642,47.40798],[8.52602,47.40844]]]}},{"type":"Feature","properties":{"kreis":7,"name":"Kreis 7"},"geometry":{"type":"Polygon","coordinates":[[[8.54866,47.37709],[8.54881,47.37704],[8.55039,47.37757],[8.55098,47.37787],[8.5511,47.37799],[8.55109,47.37815],[8.55124,47.37819],[8.55129,47.37814],[8.5514,47.37831],[8.55311,47.37967],[8.55222,47.38028],[8.55142,47.38106],[8.55058,47.38165],[8.55055,47.38187],[8.55072,47.38186],[8.55152,47.38224],[8.55297,47.38316],[8.55331,47.38323],[8.55372,47.38352],[8.55389,47.38356],[8.55385,47.38385],[8.55392,47.38392],[8.5557,47.38515],[8.55595,47.38584],[8.55629,47.38616],[8.55618,47.38623],[8.55629,47.3863],[8.55623,47.38633],[8.5566,47.38673],[8.55762,47.38711],[8.55851,47.38703],[8.56093,47.38882],[8.56192,47.38808],[8.56298,47.38749],[8.56299,47.3874],[8.56372,47.38806],[8.56411,47.38874],[8.56539,47.38969],[8.56554,47.38969],[8.5668,47.3903],[8.56742,47.39102],[8.56902,47.39172],[8.57321,47.3906],[8.57353,47.39064],[8.57365,47.39072],[8.57514,47.39024],[8.57568,47.39057],[8.5761,47.39066],[8.57726,47.39061],[8.57774,47.39101],[8.57827,47.39091],[8.57837,47.39125],[8.57853,47.39138],[8.5786,47.3917],[8.57953,47.39141],[8.57986,47.39084],[8.58084,47.3901],[8.58248,47.38866],[8.58202,47.38804],[8.58228,47.38789],[8.58268,47.38813],[8.58317,47.38831],[8.58438,47.38833],[8.58433,47.38894],[8.58484,47.38973],[8.58493,47.39011],[8.58529,47.39039],[8.58649,47.39019],[8.58697,47.39017],[8.58698,47.39002],[8.58685,47.38997],[8.58692,47.38976],[8.58766,47.38905],[8.58699,47.38793],[8.59213,47.38625],[8.59309,47.38565],[8.593,47.38523],[8.59356,47.38522],[8.59312,47.38449],[8.59275,47.38417],[8.59083,47.38476],[8.59014,47.38381],[8.58967,47.384],[8.58956,47.38376],[8.59098,47.38347],[8.59097,47.38343],[8.59219,47.38311],[8.59188,47.38271],[8.59152,47.38244],[8.59267,47.38152],[8.59385,47.3808],[8.59408,47.3806],[8.59407,47.38029],[8.59513,47.37973],[8.59557,47.3796],[8.59576,47.37927],[8.59628,47.37907],[8.59723,47.37849],[8.59712,47.37822],[8.59675,47.37782],[8.59703,47.37716],[8.59761,47.3766],[8.59706,47.37589],[8.59779,47.37557],[8.59829,47.3751],[8.59857,47.37473],[8.59814,47.37447],[8.59913,47.37398],[8.60021,47.3733],[8.60054,47.3734],[8.60097,47.37311],[8.60173,47.3721],[8.60195,47.37198],[8.60185,47.37192],[8.60193,47.3717],[8.60265,47.37154],[8.60325,47.37131],[8.60417,47.37049],[8.60445,47.37013],[8.60583,47.36908],[8.60601,47.36875],[8.60663,47.36857],[8.60746,47.36816],[8.60783,47.36793],[8.60812,47.36762],[8.60862,47.3676],[8.61064,47.36731],[8.61201,47.36684],[8.61309,47.36776],[8.61347,47.3678],[8.61367,47.36802],[8.61551,47.36769],[8.61646,47.36841],[8.61666,47.36828],[8.61706,47.36782],[8.61765,47.36681],[8.6173,47.36636],[8.6171,47.36626],[8.61684,47.36534],[8.61566,47.36465],[8.6155,47.36468],[8.61538,47.36457],[8.61514,47.36463],[8.61496,47.36458],[8.61559,47.36342],[8.61567,47.36272],[8.61483,47.36263],[8.61472,47.36151],[8.61563,47.36141],[8.61819,47.36135],[8.6193,47.36121],[8.61997,47.36103],[8.62175,47.36007],[8.62258,47.35983],[8.62188,47.35946],[8.62173,47.35849],[8.62131,47.35772],[8.62135,47.35743],[8.62154,47.35719],[8.62284,47.35639],[8.6234,47.3559],[8.62352,47.35592],[8.6234,47.35578],[8.62354,47.35561],[8.62509,47.35474],[8.62545,47.35466],[8.62459,47.35427],[8.62453,47.35415],[8.62425,47.354],[8.62246,47.35364],[8.62209,47.35334],[8.62086,47.35352],[8.62008,47.3537],[8.6199,47.35366],[8.61981,47.35368],[8.61977,47.35384],[8.61846,47.35382],[8.6184,47.35425],[8.61712,47.35413],[8.61627,47.35435],[8.61594,47.35434],[8.61571,47.35442],[8.61548,47.35435],[8.61521,47.3541],[8.61517,47.35414],[8.61497,47.35406],[8.61442,47.35405],[8.61421,47.3541],[8.61388,47.35402],[8.61381,47.35409],[8.61318,47.35425],[8.61263,47.35429],[8.61256,47.35436],[8.61222,47.35424],[8.61182,47.35394],[8.61157,47.35394],[8.61141,47.35384],[8.61131,47.35364],[8.61108,47.35352],[8.61043,47.35337],[8.60994,47.35346],[8.60985,47.35339],[8.60947,47.35351],[8.60861,47.35345],[8.60848,47.35338],[8.60836,47.35343],[8.60808,47.35333],[8.60778,47.35333],[8.60686,47.35343],[8.60608,47.35363],[8.60507,47.35359],[8.60469,47.35331],[8.60432,47.35324],[8.60432,47.35316],[8.6041,47.35318],[8.60401,47.35305],[8.60382,47.353],[8.60375,47.35281],[8.60357,47.35276],[8.60334,47.35241],[8.60306,47.35218],[8.60321,47.35207],[8.60295,47.35174],[8.60308,47.3514],[8.60299,47.35118],[8.60301,47.35076],[8.60194,47.3507],[8.60151,47.35075],[8.60105,47.35104],[8.60027,47.35111],[8.59961,47.35145],[8.5986,47.35145],[8.59825,47.35165],[8.59793,47.35165],[8.5969,47.3514],[8.59672,47.35145],[8.59667,47.35161],[8.59636,47.35172],[8.59597,47.35169],[8.59565,47.3519],[8.59495,47.35161],[8.59455,47.35175],[8.59392,47.35161],[8.59351,47.35211],[8.59318,47.3522],[8.59259,47.35221],[8.59213,47.35238],[8.592,47.35249],[8.59191,47.35278],[8.59119,47.35321],[8.59085,47.35308],[8.59048,47.35271],[8.59015,47.35286],[8.58921,47.35286],[8.58904,47.3528],[8.58823,47.35292],[8.58794,47.35307],[8.58766,47.35273],[8.58749,47.35267],[8.58695,47.35285],[8.58653,47.35281],[8.58631,47.35288],[8.58603,47.35286],[8.58564,47.35248],[8.58534,47.35254],[8.58451,47.35294],[8.58417,47.35287],[8.58388,47.35264],[8.58365,47.35258],[8.58338,47.35265],[8.58319,47.3528],[8.58278,47.35288],[8.58255,47.35334],[8.5823,47.35342],[8.58182,47.35345],[8.58163,47.35377],[8.58152,47.35379],[8.58084,47.35339],[8.58023,47.35366],[8.57956,47.35361],[8.57944,47.35374],[8.57953,47.35393],[8.57939,47.3541],[8.57897,47.3543],[8.57818,47.35445],[8.57809,47.35457],[8.57816,47.35475],[8.57802,47.35489],[8.57743,47.35482],[8.5769,47.35505],[8.5763,47.35493],[8.576,47.35541],[8.57582,47.35547],[8.57536,47.35546],[8.57518,47.35555],[8.57505,47.35586],[8.57512,47.35625],[8.57497,47.35642],[8.57456,47.35664],[8.57444,47.35699],[8.57314,47.35764],[8.57272,47.35804],[8.57063,47.35798],[8.56992,47.35784],[8.56968,47.35795],[8.56972,47.35846],[8.56942,47.35871],[8.56813,47.35899],[8.56741,47.35875],[8.56713,47.35874],[8.56587,47.3596],[8.56568,47.35963],[8.56521,47.35951],[8.56471,47.35947],[8.56388,47.35955],[8.56334,47.35946],[8.56293,47.35949],[8.56219,47.35994],[8.56178,47.36007],[8.56164,47.36005],[8.56106,47.36057],[8.56049,47.36162],[8.56014,47.36177],[8.56039,47.36201],[8.55962,47.36218],[8.55857,47.36272],[8.55666,47.36398],[8.55672,47.36403],[8.55662,47.36416],[8.55544,47.36443],[8.55534,47.36456],[8.55486,47.36477],[8.55421,47.36458],[8.5533,47.36504],[8.55222,47.36545],[8.55114,47.36567],[8.55002,47.36575],[8.54885,47.36602],[8.54884,47.3663],[8.54924,47.36669],[8.54953,47.36658],[8.55047,47.36718],[8.54979,47.36774],[8.55078,47.36847],[8.55085,47.36846],[8.54894,47.37],[8.55001,47.37107],[8.54993,47.3711],[8.55071,47.37192],[8.55078,47.37215],[8.54945,47.37525],[8.54939,47.37547],[8.54946,47.37556],[8.54914,47.37599],[8.54866,47.37709]]]}},{"type":"Feature","properties":{"kreis":8,"name":"Kreis 8"},"geometry":{"type":"Polygon","coordinates":[[[8.54214,47.36321],[8.54586,47.36422],[8.54619,47.36421],[8.54737,47.36458],[8.54885,47.36602],[8.55002,47.36575],[8.55114,47.36567],[8.55222,47.36545],[8.5533,47.36504],[8.55421,47.36458],[8.55486,47.36477],[8.55534,47.36456],[8.55544,47.36443],[8.55662,47.36416],[8.55672,47.36403],[8.55666,47.36398],[8.55857,47.36272],[8.55962,47.36218],[8.56039,47.36201],[8.56014,47.36177],[8.56049,47.36162],[8.56106,47.36057],[8.56164,47.36005],[8.56178,47.36007],[8.56219,47.35994],[8.56293,47.35949],[8.56334,47.35946],[8.56388,47.35955],[8.56471,47.35947],[8.56521,47.35951],[8.56568,47.35963],[8.56587,47.3596],[8.56713,47.35874],[8.56741,47.35875],[8.56813,47.35899],[8.56942,47.35871],[8.56972,47.35846],[8.56968,47.35795],[8.56992,47.35784],[8.57063,47.35798],[8.57272,47.35804],[8.57314,47.35764],[8.57444,47.35699],[8.57456,47.35664],[8.57497,47.35642],[8.57512,47.35625],[8.57505,47.35586],[8.57518,47.35555],[8.57536,47.35546],[8.57582,47.35547],[8.576,47.35541],[8.5763,47.35493],[8.5769,47.35505],[8.57743,47.35482],[8.57802,47.35489],[8.57816,47.35475],[8.57809,47.35457],[8.57818,47.35445],[8.57897,47.3543],[8.57939,47.3541],[8.57953,47.35393],[8.57944,47.35374],[8.57956,47.35361],[8.58023,47.35366],[8.58084,47.35339],[8.58152,47.35379],[8.58163,47.35377],[8.58182,47.35345],[8.5823,47.35342],[8.58255,47.35334],[8.58285,47.35283],[8.58319,47.3528],[8.58338,47.35265],[8.58365,47.35258],[8.58388,47.35264],[8.58417,47.35287],[8.58451,47.35294],[8.58534,47.35254],[8.58564,47.35248],[8.58593,47.35283],[8.58629,47.35285],[8.58592,47.35231],[8.58531,47.35201],[8.58478,47.35152],[8.5846,47.35145],[8.58463,47.35141],[8.58418,47.35129],[8.58439,47.35116],[8.58423,47.35113],[8.584,47.35084],[8.58349,47.35104],[8.58336,47.35087],[8.58222,47.35101],[8.58247,47.35061],[8.57852,47.34873],[8.57828,47.34888],[8.57787,47.34865],[8.57687,47.34878],[8.5769,47.34859],[8.57626,47.34838],[8.5731,47.34751],[8.57301,47.34765],[8.57215,47.34744],[8.57221,47.34736],[8.57164,47.34727],[8.57171,47.34711],[8.5703,47.34672],[8.56969,47.34759],[8.56742,47.34673],[8.56715,47.34693],[8.56705,47.34688],[8.56682,47.34713],[8.56564,47.34684],[8.56576,47.34666],[8.5651,47.34644],[8.55388,47.34086],[8.54205,47.35268],[8.54214,47.36321]]]}},{"type":"Feature","properties":{"kreis":9,"name":"Kreis 9"},"geometry":{"type":"Polygon","coordinates":[[[8.44802,47.38025],[8.44935,47.38029],[8.45176,47.38062],[8.4537,47.38027],[8.45419,47.38034],[8.45481,47.38054],[8.45616,47.38072],[8.4567,47.38094],[8.45674,47.38244],[8.45705,47.3823],[8.45743,47.38222],[8.45818,47.38221],[8.45844,47.38231],[8.45852,47.38245],[8.45843,47.38262],[8.45747,47.38325],[8.45768,47.3834],[8.45757,47.38371],[8.45808,47.38388],[8.45824,47.38417],[8.45936,47.38516],[8.46005,47.38594],[8.46052,47.38674],[8.46089,47.38704],[8.46122,47.38795],[8.46105,47.38803],[8.46382,47.39053],[8.46519,47.39132],[8.46557,47.39113],[8.46593,47.39117],[8.46619,47.39113],[8.46692,47.39075],[8.46728,47.39065],[8.46698,47.39131],[8.46743,47.39279],[8.4674,47.3929],[8.46701,47.39342],[8.46608,47.39378],[8.46511,47.39453],[8.46485,47.39481],[8.4649,47.39508],[8.46524,47.39501],[8.46536,47.39492],[8.4672,47.39475],[8.46741,47.39478],[8.46855,47.39461],[8.46916,47.39443],[8.47019,47.394],[8.47067,47.39439],[8.47191,47.39388],[8.47208,47.39408],[8.47154,47.3943],[8.47158,47.39436],[8.47143,47.39464],[8.47153,47.3949],[8.47174,47.39507],[8.47209,47.39516],[8.47265,47.39515],[8.47302,47.39506],[8.4735,47.39599],[8.46517,47.39829],[8.46569,47.39922],[8.4676,47.39872],[8.46807,47.39957],[8.46616,47.40006],[8.46759,47.40262],[8.46771,47.403],[8.46887,47.40294],[8.47002,47.40299],[8.47487,47.40373],[8.47642,47.40387],[8.4784,47.40386],[8.47996,47.40366],[8.48144,47.40322],[8.48269,47.40255],[8.48347,47.40192],[8.48541,47.39991],[8.48611,47.39943],[8.48701,47.39903],[8.48823,47.39874],[8.48933,47.39867],[8.49329,47.39912],[8.49447,47.39916],[8.4955,47.39908],[8.49787,47.3987],[8.49906,47.39836],[8.50018,47.39784],[8.50091,47.39734],[8.50226,47.39618],[8.50312,47.39565],[8.50429,47.3952],[8.50543,47.39495],[8.50514,47.39409],[8.5052,47.39404],[8.50497,47.39403],[8.50468,47.39384],[8.50293,47.39374],[8.50232,47.39365],[8.5021,47.39355],[8.50203,47.39341],[8.50213,47.39325],[8.50293,47.39267],[8.50198,47.39207],[8.49837,47.39205],[8.50073,47.39137],[8.49891,47.39036],[8.49762,47.38834],[8.50033,47.38754],[8.50025,47.38741],[8.50511,47.38597],[8.505,47.38596],[8.50334,47.38468],[8.50338,47.38452],[8.50316,47.38461],[8.50298,47.38447],[8.50577,47.38327],[8.50582,47.38313],[8.50389,47.38162],[8.5034,47.38156],[8.50307,47.38136],[8.5032,47.381],[8.49992,47.37866],[8.49918,47.37804],[8.49856,47.37738],[8.49896,47.37721],[8.50187,47.37463],[8.50215,47.37436],[8.50233,47.374],[8.50268,47.37374],[8.50269,47.3736],[8.5004,47.37113],[8.4996,47.37047],[8.49856,47.36986],[8.49606,47.36891],[8.49562,47.3687],[8.4949,47.36817],[8.49467,47.36816],[8.4946,47.36785],[8.49427,47.36763],[8.4944,47.3675],[8.49492,47.36762],[8.49515,47.36762],[8.49521,47.36756],[8.49452,47.36645],[8.49417,47.36568],[8.49405,47.36519],[8.49393,47.36515],[8.49382,47.36521],[8.4939,47.36501],[8.49417,47.36496],[8.49427,47.36479],[8.49414,47.36412],[8.49324,47.36395],[8.49135,47.36335],[8.4896,47.36262],[8.48833,47.36224],[8.4877,47.36214],[8.48364,47.35833],[8.48343,47.35802],[8.48322,47.35813],[8.4831,47.35859],[8.48273,47.35907],[8.48206,47.35954],[8.48117,47.35996],[8.4788,47.36078],[8.47806,47.36064],[8.47699,47.36028],[8.47366,47.36081],[8.47341,47.36075],[8.47277,47.36079],[8.47228,47.36096],[8.4717,47.36132],[8.47055,47.36166],[8.47018,47.36289],[8.46945,47.36431],[8.46952,47.36438],[8.46834,47.36496],[8.46641,47.36574],[8.46584,47.3661],[8.46546,47.36664],[8.46533,47.36662],[8.46486,47.36681],[8.46428,47.36727],[8.46419,47.36838],[8.46448,47.36875],[8.46491,47.36897],[8.46484,47.36911],[8.46523,47.36921],[8.46939,47.37136],[8.47043,47.3726],[8.47049,47.37308],[8.47024,47.37395],[8.4687,47.37382],[8.46814,47.37374],[8.46762,47.37357],[8.46545,47.37443],[8.46393,47.37545],[8.46289,47.37603],[8.45996,47.3775],[8.45864,47.37771],[8.45782,47.37772],[8.45639,47.37801],[8.45524,47.3781],[8.45117,47.37817],[8.45048,47.37835],[8.44848,47.37967],[8.44802,47.38025]]]}},{"type":"Feature","properties":{"kreis":10,"name":"Kreis 10"},"geometry":{"type":"Polygon","coordinates":[[[8.46802,47.41334],[8.46823,47.41352],[8.46864,47.41363],[8.46869,47.41387],[8.46858,47.41408],[8.46908,47.41453],[8.46956,47.41484],[8.47008,47.41557],[8.46957,47.41593],[8.46915,47.41649],[8.46914,47.41693],[8.46964,47.41752],[8.4716,47.41763],[8.47556,47.41903],[8.47721,47.41974],[8.47715,47.41992],[8.47689,47.42016],[8.47784,47.42211],[8.47896,47.42172],[8.47938,47.42113],[8.47973,47.42141],[8.48132,47.42134],[8.48172,47.423],[8.48296,47.42265],[8.48293,47.42222],[8.48397,47.42194],[8.48567,47.42161],[8.48641,47.42157],[8.48684,47.42186],[8.48798,47.42201],[8.48791,47.42164],[8.48817,47.42153],[8.48885,47.4213],[8.49014,47.42103],[8.49141,47.42067],[8.49143,47.42021],[8.49341,47.41988],[8.49434,47.41962],[8.49414,47.41911],[8.49456,47.41883],[8.49503,47.41831],[8.49643,47.41735],[8.49853,47.4166],[8.4999,47.416],[8.50033,47.41575],[8.50092,47.41527],[8.50131,47.41457],[8.50114,47.41423],[8.50119,47.41392],[8.50171,47.41277],[8.50213,47.41291],[8.50218,47.41286],[8.50295,47.41326],[8.50288,47.41339],[8.50311,47.41367],[8.50511,47.41242],[8.50605,47.41259],[8.50607,47.4121],[8.50631,47.41218],[8.50692,47.41179],[8.51097,47.41174],[8.51096,47.41159],[8.51218,47.41159],[8.51228,47.41147],[8.51324,47.41112],[8.51386,47.41117],[8.51484,47.41075],[8.51519,47.41089],[8.51553,47.41094],[8.51774,47.41092],[8.51769,47.41086],[8.52265,47.40916],[8.52456,47.40789],[8.5246,47.40793],[8.52528,47.40683],[8.52501,47.40678],[8.52507,47.40657],[8.52688,47.40709],[8.52804,47.4056],[8.52821,47.40548],[8.52835,47.40553],[8.5286,47.40523],[8.52975,47.40479],[8.53013,47.40441],[8.53064,47.4036],[8.53064,47.40256],[8.5316,47.40149],[8.53204,47.40053],[8.53209,47.40009],[8.53194,47.40009],[8.53176,47.39924],[8.53231,47.39833],[8.53231,47.39818],[8.53219,47.39811],[8.53236,47.39793],[8.53231,47.3974],[8.53275,47.39752],[8.53267,47.39746],[8.53227,47.39574],[8.53229,47.39555],[8.53316,47.39455],[8.53394,47.39341],[8.53437,47.393],[8.53464,47.39287],[8.53505,47.39235],[8.53546,47.39199],[8.53622,47.39143],[8.53604,47.39127],[8.53614,47.39119],[8.53625,47.38847],[8.536,47.38834],[8.53605,47.38811],[8.53593,47.38789],[8.53453,47.38687],[8.53416,47.38706],[8.53398,47.38699],[8.53401,47.38687],[8.53348,47.38681],[8.53337,47.38685],[8.53288,47.38639],[8.53153,47.38722],[8.52834,47.38939],[8.52609,47.39059],[8.52424,47.39135],[8.5219,47.39192],[8.52027,47.39222],[8.51701,47.3931],[8.51439,47.39412],[8.51318,47.39445],[8.51197,47.3946],[8.50599,47.39489],[8.5044,47.39516],[8.5034,47.39552],[8.50256,47.39597],[8.50083,47.3974],[8.50009,47.39789],[8.49931,47.39826],[8.49841,47.39857],[8.49731,47.39881],[8.49464,47.39916],[8.49329,47.39912],[8.48933,47.39867],[8.48811,47.39876],[8.48691,47.39907],[8.48611,47.39943],[8.48546,47.39986],[8.48334,47.40204],[8.4822,47.40286],[8.48131,47.40327],[8.4804,47.40356],[8.47934,47.40377],[8.47816,47.40387],[8.4782,47.40508],[8.47739,47.40516],[8.47734,47.40575],[8.47707,47.40619],[8.47706,47.40763],[8.47727,47.40817],[8.4773,47.40914],[8.47704,47.40935],[8.47544,47.4097],[8.47584,47.41077],[8.47606,47.41072],[8.47629,47.41102],[8.47666,47.41097],[8.47684,47.41146],[8.47726,47.41194],[8.47583,47.41231],[8.47486,47.41242],[8.47395,47.41222],[8.47359,47.41206],[8.47304,47.41146],[8.47291,47.41098],[8.47269,47.41058],[8.47102,47.41094],[8.47114,47.41137],[8.47086,47.41167],[8.47045,47.41159],[8.47039,47.4125],[8.47032,47.41253],[8.46877,47.41225],[8.46802,47.41334]]]}},{"type":"Feature","properties":{"kreis":11,"name":"Kreis 11"},"geometry":{"type":"Polygon","coordinates":[[[8.48438,47.42903],[8.48446,47.42979],[8.4858,47.43103],[8.49563,47.43281],[8.50028,47.43442],[8.50089,47.43456],[8.50208,47.43467],[8.50366,47.43402],[8.50998,47.43213],[8.51038,47.43196],[8.51029,47.43193],[8.51153,47.43118],[8.51275,47.43085],[8.51338,47.43093],[8.51625,47.43179],[8.51647,47.43147],[8.5166,47.43138],[8.51673,47.43139],[8.51678,47.43126],[8.51729,47.43133],[8.51779,47.43157],[8.5188,47.43188],[8.51981,47.43167],[8.52464,47.43126],[8.5255,47.43315],[8.53031,47.43206],[8.53049,47.43257],[8.53065,47.43266],[8.53303,47.43227],[8.53375,47.43251],[8.53469,47.432],[8.53522,47.43188],[8.53607,47.43186],[8.53741,47.4314],[8.53966,47.43126],[8.54011,47.43109],[8.54021,47.43179],[8.54034,47.43186],[8.54364,47.43143],[8.54286,47.43289],[8.54315,47.43282],[8.54312,47.43288],[8.54453,47.43251],[8.5446,47.43261],[8.54608,47.43207],[8.54856,47.43142],[8.55007,47.43123],[8.55011,47.43128],[8.55084,47.43104],[8.55138,47.43109],[8.552,47.43104],[8.55536,47.43066],[8.55611,47.42803],[8.55685,47.42624],[8.55693,47.42626],[8.55754,47.42566],[8.55784,47.42554],[8.55699,47.4249],[8.55737,47.42472],[8.55691,47.42424],[8.55724,47.4241],[8.5542,47.4208],[8.56083,47.41817],[8.5613,47.41828],[8.56236,47.41632],[8.56283,47.41643],[8.56322,47.41569],[8.5614,47.41498],[8.56041,47.41476],[8.55944,47.41465],[8.55946,47.41447],[8.55885,47.41443],[8.55864,47.41309],[8.55886,47.41305],[8.55843,47.41305],[8.55862,47.40852],[8.55875,47.40811],[8.55876,47.40605],[8.55865,47.40594],[8.55852,47.40536],[8.55784,47.40536],[8.55721,47.40511],[8.55646,47.40405],[8.55586,47.40355],[8.55633,47.40347],[8.55723,47.4037],[8.55734,47.40281],[8.55679,47.40259],[8.55647,47.40234],[8.55611,47.40198],[8.55562,47.40129],[8.55543,47.40137],[8.55453,47.40048],[8.5545,47.40055],[8.55333,47.40108],[8.55255,47.4019],[8.55107,47.40115],[8.54797,47.39915],[8.54746,47.39938],[8.54744,47.39964],[8.54723,47.39984],[8.54696,47.39995],[8.54658,47.39999],[8.54651,47.40036],[8.54414,47.39996],[8.54406,47.40016],[8.54383,47.40032],[8.54479,47.401],[8.54464,47.40111],[8.54451,47.40102],[8.5443,47.40117],[8.54442,47.40125],[8.54406,47.40143],[8.544,47.40154],[8.54197,47.40267],[8.5412,47.40322],[8.54145,47.40337],[8.54107,47.40364],[8.54084,47.40348],[8.54056,47.40368],[8.54047,47.40364],[8.54018,47.40395],[8.54101,47.40431],[8.53815,47.4064],[8.53811,47.40657],[8.53791,47.40668],[8.53776,47.40642],[8.53626,47.40678],[8.53618,47.40675],[8.53601,47.40683],[8.53609,47.40697],[8.53594,47.40693],[8.53574,47.40699],[8.53157,47.40846],[8.53132,47.40811],[8.53092,47.40861],[8.53084,47.40886],[8.53059,47.40886],[8.52913,47.40944],[8.52899,47.40919],[8.52861,47.40953],[8.52845,47.40945],[8.52813,47.40971],[8.52734,47.40907],[8.52602,47.40844],[8.52642,47.40798],[8.52688,47.40709],[8.52507,47.40657],[8.52501,47.40678],[8.52528,47.40683],[8.5246,47.40793],[8.52456,47.40789],[8.52265,47.40916],[8.51769,47.41086],[8.51774,47.41092],[8.51553,47.41094],[8.51519,47.41089],[8.51484,47.41075],[8.51386,47.41117],[8.51324,47.41112],[8.51228,47.41147],[8.51218,47.41159],[8.51096,47.41159],[8.51097,47.41174],[8.50692,47.41179],[8.50631,47.41218],[8.50607,47.4121],[8.50605,47.41259],[8.50511,47.41242],[8.50311,47.41367],[8.50288,47.41339],[8.50295,47.41326],[8.50218,47.41286],[8.50213,47.41291],[8.50171,47.41277],[8.50119,47.41392],[8.50114,47.41423],[8.50131,47.41457],[8.50092,47.41527],[8.50033,47.41575],[8.4999,47.416],[8.49853,47.4166],[8.49643,47.41735],[8.49503,47.41831],[8.49456,47.41883],[8.49414,47.41911],[8.49434,47.41962],[8.49341,47.41988],[8.49143,47.42021],[8.49141,47.42067],[8.49014,47.42103],[8.48885,47.4213],[8.48791,47.42164],[8.48799,47.42211],[8.48853,47.42271],[8.49014,47.4223],[8.4902,47.42233],[8.49102,47.4239],[8.49007,47.42435],[8.49009,47.42524],[8.4904,47.42541],[8.49043,47.42553],[8.4902,47.42569],[8.48916,47.42595],[8.48922,47.42607],[8.48772,47.42646],[8.48657,47.42681],[8.48601,47.42708],[8.48553,47.42712],[8.48526,47.42726],[8.48472,47.4281],[8.48479,47.42835],[8.48467,47.42873],[8.48438,47.42903]]]}},{"type":"Feature","properties":{"kreis":12,"name":"Kreis 12"},"geometry":{"type":"Polygon","coordinates":[[[8.55353,47.39929],[8.55428,47.40003],[8.55523,47.40054],[8.55583,47.40163],[8.55647,47.40234],[8.55679,47.40259],[8.55734,47.40281],[8.55723,47.4037],[8.55633,47.40347],[8.55586,47.40355],[8.55646,47.40405],[8.55721,47.40511],[8.55784,47.40536],[8.55852,47.40536],[8.55865,47.40594],[8.55876,47.40605],[8.5587,47.4061],[8.55881,47.40657],[8.55875,47.40811],[8.55862,47.40852],[8.55843,47.41305],[8.55886,47.41305],[8.55864,47.41309],[8.55885,47.41443],[8.55946,47.41447],[8.55944,47.41465],[8.56041,47.41476],[8.5614,47.41498],[8.56322,47.41569],[8.56325,47.41565],[8.56623,47.41632],[8.56694,47.41629],[8.56757,47.41662],[8.56781,47.41684],[8.56816,47.41738],[8.56838,47.418],[8.56876,47.41855],[8.56904,47.41871],[8.56942,47.41875],[8.56961,47.41868],[8.56964,47.41889],[8.56938,47.41917],[8.56945,47.41926],[8.57022,47.41918],[8.57023,47.41923],[8.57225,47.41892],[8.57285,47.41927],[8.57369,47.42003],[8.5738,47.4178],[8.57367,47.41779],[8.57343,47.41711],[8.57359,47.41645],[8.57355,47.41566],[8.57374,47.4153],[8.57376,47.41441],[8.57387,47.41438],[8.5739,47.41387],[8.57385,47.41324],[8.57371,47.41303],[8.57333,47.41257],[8.57261,47.41206],[8.57275,47.41164],[8.57301,47.41144],[8.58807,47.40796],[8.58895,47.40756],[8.58928,47.40756],[8.58968,47.40742],[8.59066,47.40739],[8.59313,47.40704],[8.59658,47.40651],[8.59729,47.40631],[8.59723,47.406],[8.59609,47.40612],[8.59379,47.40222],[8.59623,47.40154],[8.59481,47.39918],[8.59726,47.3985],[8.5973,47.39845],[8.59654,47.39733],[8.5964,47.397],[8.59638,47.39663],[8.59624,47.39646],[8.59454,47.39712],[8.59393,47.39647],[8.59388,47.39649],[8.59358,47.3962],[8.59336,47.39614],[8.59257,47.39654],[8.59209,47.39691],[8.59174,47.39681],[8.59149,47.397],[8.58983,47.39646],[8.58829,47.3958],[8.58906,47.39501],[8.58975,47.39478],[8.58996,47.39478],[8.58819,47.3935],[8.58754,47.39321],[8.58749,47.39297],[8.58674,47.39296],[8.5862,47.3928],[8.58443,47.39195],[8.58414,47.39155],[8.58371,47.39008],[8.58306,47.38905],[8.58317,47.38831],[8.58268,47.38813],[8.58228,47.38789],[8.58202,47.38804],[8.58248,47.38866],[8.58084,47.3901],[8.57986,47.39084],[8.57953,47.39141],[8.5786,47.3917],[8.57853,47.39138],[8.57837,47.39125],[8.57827,47.39091],[8.57774,47.39101],[8.57726,47.39061],[8.5761,47.39066],[8.57568,47.39057],[8.57514,47.39024],[8.57365,47.39072],[8.57353,47.39064],[8.57321,47.3906],[8.5688,47.39174],[8.56828,47.39236],[8.56547,47.39459],[8.56308,47.39574],[8.56275,47.39609],[8.56147,47.39695],[8.56076,47.39765],[8.5594,47.39861],[8.55885,47.39875],[8.55826,47.39878],[8.55791,47.39873],[8.55793,47.39878],[8.55758,47.39888],[8.55742,47.39905],[8.55716,47.39873],[8.55461,47.39846],[8.5543,47.39855],[8.55353,47.39929]]]}}]}